HAWK-5A                 
1 52757U 22057AB  26159.39984687  .00017256  00000+0  29775-3 0  9992
2 52757  97.6598 317.6838 0005967 104.9107 255.2805 15.51075265224986
HAWK-6B                 
1 55324U 23011A   26158.41196135  .00004950  00000+0  21517-3 0  9994
2 55324  40.4987  49.0839 0003999 308.4007  51.6443 15.22842694186357
HAWK-6C                 
1 55326U 23011C   26159.39500323  .00004417  00000+0  19278-3 0  9991
2 55326  40.4977  40.1895 0004405 304.1561  55.8830 15.22858904186518
HAWK-6A                 
1 55327U 23011D   26157.42764580  .00005594  00000+0  24211-3 0  9991
2 55327  40.4987  53.2869 0004295 292.3056  67.7298 15.22834948186219
HAWK-7A                 
1 56191U 23054P   26159.20010691  .00001744  00000+0  67977-4 0  9993
2 56191  97.2714  46.7655 0004898  77.1886 282.9901 15.27262248175657
HAWK-7B                 
1 56193U 23054R   26159.20002410  .00005103  00000+0  19369-3 0  9999
2 56193  97.2737  45.0263 0003999  86.3301 273.8395 15.27268920175655
HAWK-7C                 
1 56200U 23054Y   26159.19991128  .00004908  00000+0  18638-3 0  9999
2 56200  97.2715  45.7977 0004112  78.5999 281.5702 15.27265730175657
